O3B MPOWER F1           
1 54755U 22174A   23336.91952609 -.00000023  00000+0  00000+0 0  9994
2 54755   0.0549  17.6063 0005768 248.3611 219.1194  5.00118465 18972
